{"type":"Topology","arcs":[[[22551,25698],[41,-22],[65,-6],[58,28],[36,56],[47,22],[41,-11],[117,78],[0,28],[100,39],[53,0],[111,39],[65,-62],[59,-39],[23,-100],[-70,-39],[-36,-94],[-58,-50],[-41,-61],[29,-17],[41,28],[29,-89],[47,-6],[36,-39],[82,6],[0,-56],[47,-5],[-35,77],[23,39],[53,39],[94,11],[12,56],[76,-72],[23,0]],[[23719,25476],[-52,-22],[-18,-56],[47,-33],[-29,-78],[52,-50],[18,-56],[59,-11],[11,-95],[153,-11],[165,-61],[23,22],[106,6]],[[24254,25031],[47,-78],[41,-33],[53,-101],[-12,-77],[23,-190],[-29,-178],[-35,-44],[35,-39],[-12,-67],[53,-16],[6,-51],[35,-61],[-29,-72],[47,-56],[35,-5],[65,44],[0,-66],[82,-56],[82,-39],[-29,-45],[17,-22]],[[24729,23779],[24,-28],[-6,-50],[47,-39]],[[24794,23662],[-30,-38],[-99,-12],[-6,39],[-53,34],[-100,-39],[-29,-39],[-71,-17],[-94,39],[-47,0],[-76,61],[-12,61]],[[24177,23751],[30,45],[-24,56],[-41,50],[-29,5],[-35,111],[-89,78],[-29,84],[-82,-11],[-47,-112],[-123,73],[17,39],[-11,61],[-89,28],[-35,-12],[-76,39],[-12,56]],[[23502,24341],[6,45],[47,22],[-18,50],[0,67],[-88,16],[-6,34],[-105,-17],[12,39],[-30,39],[-82,0],[-47,-39],[-35,22],[-12,100],[-53,23],[24,33],[-18,44],[-94,12],[-76,-56],[-18,50],[-88,11],[-6,33],[-158,62],[-12,116],[29,95],[47,6],[59,-50],[112,44],[5,78],[-29,72],[18,73],[-18,72],[-76,-11],[-59,-45],[-70,-5],[-24,72],[-100,83],[18,78],[-6,89]],[[13421,20853],[94,0],[30,17],[152,-22],[24,33],[106,-22],[41,17],[41,-39],[47,-6],[64,-55],[77,-17],[64,-61],[24,39],[58,50],[71,22],[41,-17],[12,-44],[6,-123],[-18,-44],[-53,-11],[-41,-78],[-47,-6],[-23,-61],[-53,-11],[-6,-39],[-53,0],[-18,-50],[-70,-50],[0,-45],[29,-105]],[[14020,20125],[-129,16],[-6,34],[-70,67],[-24,5],[-23,-67],[-141,-116],[0,-101],[35,-33],[47,-117],[53,-50],[-29,-44]],[[13733,19719],[-224,39],[-76,66],[-88,50],[-18,56],[-70,33],[-41,45],[-12,44],[59,23],[-29,89],[-18,16],[-59,-16],[-88,44],[-64,11],[-24,62],[6,72],[-94,105],[29,95],[30,17]],[[12952,20570],[76,-84],[29,56],[6,78],[30,22],[-24,67],[-59,33],[-76,78],[24,45],[35,11],[82,-50],[-47,122],[47,44],[47,0],[29,39],[94,-50],[24,-44],[-24,-50],[47,-17],[-17,-39],[64,-28],[71,6],[11,44]],[[15858,19446],[-117,-17],[-59,-105],[17,-22],[-23,-51],[-100,-72],[-12,-83],[-41,11],[-47,-56],[-23,-139],[-41,-28],[-77,17],[-29,-72],[-35,-17],[12,-56],[-36,-61],[24,-55],[0,-67],[47,-67],[47,0],[23,-78],[59,-100],[-47,-83],[-65,-6],[-11,-94],[41,-17],[29,-67],[29,-11],[12,-95],[-17,-16],[-71,5],[-41,34],[-65,0],[-11,-39],[-47,-39],[6,-28],[-77,-11],[-53,39],[-52,-28],[-41,-50],[-259,5]],[[14707,17827],[-35,12],[-88,66],[-6,34],[-53,11],[-53,44],[-23,-50],[-76,-11],[-6,-28],[-100,-5],[-24,-28],[-58,-17],[-77,11],[-29,62],[-53,44]],[[14026,17972],[35,50],[6,56],[41,44],[59,6],[-12,61],[47,39],[47,6],[-23,77],[29,17],[18,84],[100,111],[58,39],[-17,78],[-41,27],[0,34],[35,33],[-47,34],[47,27],[88,123],[17,50],[-140,16],[-53,-27],[-94,-17],[-30,44],[94,67],[71,22],[59,78],[76,28],[0,72],[-18,45],[18,56],[-12,44],[-41,67],[-106,22],[6,61],[-100,61],[-58,17],[-24,161],[-35,39]],[[14126,19824],[176,0],[18,17],[-36,89],[118,78],[29,61],[71,-11],[94,17],[11,89],[106,-11],[94,-62],[76,-16],[47,-28]],[[14930,20047],[12,-22],[82,-17],[59,-78],[59,0],[35,-61],[41,0],[41,39],[24,100],[-24,44],[-64,73],[29,83],[41,0],[47,39],[111,-17],[36,-38],[82,-62],[23,-128],[36,-16],[41,-50],[23,-78],[71,-95],[-30,-61],[12,-128],[18,-28],[88,-55],[35,-45]],[[14144,18812],[-53,89],[88,83],[23,-22],[-17,-50],[17,-83],[-58,-17]],[[14267,18879],[-24,61],[65,6],[6,-28],[-47,-39]],[[14226,18795],[0,89],[41,-16],[-41,-73]],[[14014,18501],[-88,-23],[-117,28],[-65,28],[-23,-33],[41,-28],[6,-45],[-24,-33],[-23,-78],[-47,-28],[-35,-55],[-36,11],[-41,-50],[-23,-67],[-165,-100],[-41,16],[12,78],[-59,17],[47,89],[77,44],[47,-50],[23,45],[-59,28],[-76,-11],[-35,39],[-12,72],[47,89],[12,67],[59,77],[17,56],[-29,72],[64,-11],[106,67],[123,0],[18,-33],[-6,-78],[24,-34],[0,-66],[158,78],[53,66],[94,28],[12,-28],[158,6],[-41,-89],[-23,-106],[-42,-72],[-35,-34],[-47,0],[-6,51]],[[13932,18356],[6,56],[47,-28],[-53,-28]],[[13920,18278],[36,28],[47,72],[41,-28],[-47,-55],[-77,-17]],[[21535,23273],[47,-50],[0,-56],[-23,-50],[12,-66],[-118,-34],[-41,39],[-35,-72],[-41,22],[29,39],[-18,39],[-70,17],[-82,-56],[-12,45],[41,33],[6,72],[35,-16],[94,22],[59,39],[65,5],[52,28]],[[21060,23045],[-71,39],[83,50],[29,-44],[-41,-45]],[[20895,23012],[-52,55],[29,17],[41,-56],[-18,-16]],[[20461,22845],[-6,44],[29,28],[36,-28],[-59,-44]],[[20344,22806],[-30,22],[24,56],[35,16],[23,-44],[-52,-50]],[[20302,22055],[-23,33],[-100,11],[-29,28]],[[20150,22127],[53,17],[17,78],[0,61],[24,122],[-24,84],[-59,55],[83,0],[47,23],[47,-17],[135,117],[6,39],[82,22],[6,44],[70,51],[12,-62],[59,50],[-12,45],[94,17],[76,-17],[35,-45],[77,-11],[52,28],[53,6],[47,27],[30,51],[47,-17],[11,-34],[-17,-77],[47,-34],[23,39],[112,17],[29,-72],[-35,-45],[88,-56],[23,12],[59,-51],[106,-11],[41,-72],[47,-22]],[[21741,22489],[0,-39],[-41,-72],[-65,16],[-41,39],[-35,-22],[-88,-6],[-71,28],[-123,-22],[-41,11],[-53,-28],[-12,-72],[-29,-33],[-100,-12],[-41,12],[-18,-39],[-70,-56],[-106,39],[-47,50],[-94,-33],[-94,-17],[-5,-39],[-41,-11],[-30,22],[-64,-61],[-36,-17],[-17,-50],[-77,-22]],[[27641,24881],[-17,-106],[47,-45],[0,-50],[146,45],[6,22],[71,11],[64,-28],[59,0],[29,-39],[89,28],[29,-5]],[[28164,24714],[-41,-61],[23,-73],[-53,-61],[0,-44],[-52,-34],[5,-28],[-76,-55],[-59,-84],[-5,-66],[-24,-62],[-70,-55],[-6,-50],[-30,-50],[-64,-34],[-24,-50],[-64,6],[-94,-39],[-18,-39],[0,-67],[-23,-11],[-12,-78],[29,-67],[-11,-94]],[[27495,23518],[-89,-11],[-223,-56],[-187,-61],[-141,-56],[-141,-5],[-100,-23],[88,178],[18,12],[64,-62],[71,39],[52,11],[59,45],[35,-6],[36,67],[82,56],[64,5],[6,84],[18,22],[-35,50],[-106,0],[-59,33],[-29,-33],[-82,-33],[-77,-11],[-94,5],[-94,-17],[-52,78],[-88,34],[5,116],[-47,-72],[-29,-172],[71,-73],[41,-72],[-53,-11],[-118,50],[-64,56],[-12,39],[29,83],[12,72],[-17,56],[-65,39],[0,117],[41,161],[53,95],[-65,11],[0,-50],[-82,-34],[-47,17]],[[26144,24291],[-35,83],[0,39],[-147,128]],[[25962,24541],[0,117],[18,28],[0,106],[82,105],[82,162],[123,-28],[106,50],[59,0],[76,44],[0,45],[53,11],[0,-50],[24,-45],[82,-33],[6,-72],[58,-61],[100,-28],[24,-34],[41,11],[29,-66],[88,11],[59,33],[6,28],[82,11],[88,-72],[35,11],[24,-45],[99,-38],[77,61],[158,78]],[[32749,28518],[-29,-27],[17,-106],[-5,-50],[23,-56],[0,-78],[-23,-11],[5,-61],[53,-50],[6,-39],[-41,-33],[-64,-6],[-24,-28],[35,-66],[18,-89],[-6,-117],[6,-67],[23,-33],[-58,-39],[0,-28],[-47,-72],[-6,-78],[-30,-50],[-52,0],[-24,39],[-53,-6],[-11,-28],[-83,11],[6,-33],[-47,-33],[-70,0],[-82,-51],[-83,-22],[-35,-94],[-47,33],[-53,-5],[-29,-39],[12,-45],[-35,-78],[-71,-22],[-106,-61],[-41,22],[-35,-28]],[[31663,26894],[-47,17]],[[31616,26911],[6,39],[-106,100],[-88,-6],[-70,39],[-118,-27],[-11,38],[-83,62],[6,44],[-88,61],[-17,45],[58,105],[71,62],[-24,89],[30,44],[6,61],[41,11],[47,56],[-36,61],[-70,-11],[-135,28],[-53,44],[0,62],[18,66],[47,62],[17,61],[-35,44],[47,50],[0,34],[53,44],[-106,61],[12,56],[70,72]],[[31105,28468],[30,39],[94,61],[0,34],[70,-6],[153,78],[11,28],[53,-6],[53,45],[118,61],[117,33],[23,34],[89,-11],[-12,72],[35,33],[117,45],[71,0],[141,-28],[29,6],[71,-39],[76,-6],[70,-39],[65,-78],[41,-16],[6,-73],[41,-22],[59,11],[6,-133],[-24,-45],[41,-28]],[[29849,26255],[94,-23],[23,-44],[53,-34],[47,6],[94,-61],[29,28],[65,5]],[[30254,26132],[53,-50],[0,-61],[23,-78],[83,-111],[88,-50],[52,-11],[59,-45]],[[30612,25726],[-29,-39],[35,-83],[-23,-56],[11,-61],[-29,-56],[-53,-55],[-76,-23],[-35,-50],[-71,-11],[-100,-55],[-41,-112]],[[30201,25125],[-82,-39],[-47,17],[-82,-28],[-235,-44],[-29,94],[-100,-11],[-30,89],[-23,22],[-94,-77],[-6,-134],[12,-39],[-47,-39],[18,-61],[-12,-50],[35,-89],[0,-50],[-76,-67],[-30,17],[-88,5],[-23,39],[-35,6],[-24,100],[-35,50],[6,67],[-24,39],[-47,22],[-70,-22],[-24,-28],[-47,22],[-17,106],[-35,22],[46,78],[0,83],[-23,23],[23,44],[6,173],[-29,22],[0,61],[-23,106],[-24,11]],[[28886,25665],[-41,61],[-6,56],[-29,39],[105,105],[-94,62],[36,83],[64,122],[18,6],[70,-56],[77,95],[35,83],[64,73],[118,-45],[29,-28],[-17,-55],[47,-39],[35,0],[41,55],[35,-16],[118,11],[23,-22],[6,-67],[94,-6],[53,28],[41,45],[41,0]],[[24254,25031],[17,33],[53,28],[12,61],[53,6],[53,-45],[41,22],[6,34],[41,44],[0,67],[47,111],[76,-72],[47,11],[41,84],[41,11],[41,-17],[24,28],[47,-17],[0,84],[17,16],[77,-11],[35,50],[-53,150],[-24,17],[42,67],[64,0],[24,-34],[64,-11],[82,-50]],[[25222,25698],[12,-83],[53,5],[12,-83],[-12,-72],[76,-28],[12,39],[65,-56],[17,-44],[-35,-39],[70,-106],[-23,-61],[59,-67],[-59,-39],[18,-55],[-18,-73],[-35,-44],[0,-89],[-30,-23],[71,-55]],[[25475,24725],[17,-78],[59,-50],[-35,-67],[6,-144],[-41,-39],[-6,-151],[-35,-61],[-47,-22],[-18,-83],[-94,-56],[-117,-45],[-112,28],[-23,34],[-94,-6],[-47,33],[-35,-50],[52,-44],[-35,-84],[-64,-44],[-77,-17]],[[31616,26911],[-64,-28],[-77,39],[-117,-44],[-100,-6],[-59,17],[-64,61],[-94,67],[-71,-56],[-47,33],[-111,6],[-30,28],[-47,5],[-64,39],[-76,-11],[-124,-200],[6,-67],[-35,-11],[0,-45],[-71,12],[-35,-39],[-53,-17],[-52,-45],[-53,6],[-71,-28],[-70,-89],[-71,-16],[-70,11],[-18,-56],[-58,-56]],[[29820,26421],[-47,17],[-24,45],[-82,33],[23,50],[-29,78],[35,44],[-23,62],[-71,11],[-17,66],[88,6],[-24,56],[24,22],[-41,44],[-24,117],[100,50],[-12,234],[-105,39],[-71,-17],[-41,-33],[-53,28],[-29,-28],[-53,5],[-6,34],[-111,33],[5,67],[-11,50],[58,150],[0,89],[47,39],[12,44],[123,39],[18,34],[-23,50],[41,33],[58,6],[229,72]],[[29784,28090],[36,0],[17,45],[47,0],[35,-28],[106,39],[18,66],[-18,51],[65,-12],[58,28],[77,17],[-18,83],[24,50],[93,-5],[-5,67],[-24,77],[12,56],[141,17],[82,72],[0,50],[41,28],[41,-67],[76,-55],[12,-78],[47,-23],[47,12],[6,-45]],[[30800,28535],[65,0],[70,-33],[70,5],[100,-39]],[[35338,33030],[24,-67],[12,-84],[-71,-50],[-47,-5],[-12,-56],[18,-67],[-59,-22],[-76,-56],[-6,-50],[76,-89],[-52,-16],[-24,-61],[-59,-34],[-52,-5],[-30,-50],[165,-28],[-12,-61],[-82,-62],[-24,-44],[35,-17],[18,-50],[59,33],[35,-55],[-23,-56],[-36,-5],[-35,33],[-12,-89],[12,-44],[-47,-51],[18,-61],[53,-16],[-24,-45],[47,-11],[24,-56],[-18,-133],[-65,61],[-41,-6],[-12,101],[-52,-17],[-36,28],[47,55],[-70,34],[-53,-28],[-29,67],[-118,0],[-170,-45],[-88,-61],[12,-83],[-65,72],[0,39],[-47,16],[-82,-33],[-6,-44],[-35,-6],[6,-78],[58,17],[18,-56],[-41,-28],[-82,-22],[-106,-195],[-70,-216],[-24,-184],[0,-50],[30,-189]],[[34012,30649],[-71,16],[-65,-27],[6,-61],[-23,-28],[6,-123],[-77,0],[-70,28],[6,-55],[-94,0],[-82,72],[11,94],[-17,50],[-41,45],[-65,0],[-117,28],[-153,-28],[-29,56],[11,44],[-52,28],[-30,-11],[-41,44],[-117,-50],[-59,17],[-65,39]],[[32784,30827],[-11,39],[23,33],[-23,61],[53,39],[99,11],[88,28],[36,34],[-6,38],[23,51],[94,116],[-23,117],[6,84],[41,16],[0,56],[70,39],[-17,67],[111,94],[-18,45],[18,55],[35,-5],[30,39],[-18,61],[-59,33],[-29,73],[41,89],[-35,89],[-35,33],[6,56],[52,-28],[53,5],[35,73],[6,61],[-29,44],[29,28],[41,78],[-76,33],[-12,95],[-88,78],[-6,61]],[[33289,32846],[24,-33],[100,44],[58,-11],[47,17],[30,44],[58,22],[24,50],[88,23]],[[33718,33002],[94,11],[106,-78],[47,0],[99,-45],[24,-44],[64,-22],[47,11],[206,-11],[18,-45],[-47,-50],[35,-50],[-6,-50],[82,-11],[65,-78],[76,28],[29,78],[59,-11],[6,61],[53,-28],[35,11],[53,-39],[76,-33],[30,5],[0,67],[52,100],[-23,39],[70,72],[6,89],[-17,67],[11,45],[41,11],[106,-17],[71,-22],[52,-33]],[[35327,32718],[-41,67],[35,44],[6,-111]],[[35227,31478],[-47,72],[35,17],[41,-23],[-29,-66]],[[28164,24714],[82,28],[0,50],[59,11],[35,50],[70,16],[71,45],[100,89],[53,-11],[41,50],[64,22],[18,56],[-53,67],[0,66],[59,6],[17,78],[-47,16],[0,45],[41,50],[-17,56],[35,27],[29,-22],[42,78],[-6,56],[29,22]],[[30201,25125],[129,11],[36,-11],[17,-139],[12,-16],[-24,-78],[-58,-73],[23,-133],[77,-56],[5,-55],[106,-23],[47,0]],[[30571,24552],[-23,-50],[-47,-55],[11,-56],[-11,-44],[47,-6],[0,-83],[-30,-12],[24,-61],[53,-5],[46,-95],[-17,-22],[-12,-89],[-59,-22],[-47,-56],[6,-39],[-47,-100],[-94,-61],[-23,-78],[-29,-22],[-6,-73],[-106,-50],[-147,-105],[-29,0],[-29,50],[-71,44],[18,39],[-47,56],[-30,11],[0,72],[65,78],[-24,83],[-23,39],[23,28],[-11,117],[64,56],[-53,116],[30,123],[82,17],[47,-23],[94,50],[-47,73],[-35,22],[-47,61],[-153,56],[-94,5],[-111,-44],[-124,-11],[-35,-23],[-23,-72],[-88,-100],[52,-6],[6,-50],[-58,-55],[-153,-67],[-112,-61],[-47,-89],[-11,-67],[23,-22],[-88,-156],[-47,-22],[-88,-78],[-41,-106],[-6,-72],[59,-95],[-59,12],[-106,50],[-146,55],[-171,39],[-111,6],[-124,-23],[-93,-27],[-224,55],[-152,17],[-124,0],[-93,-11]],[[32749,28518],[59,0],[47,-44],[12,-45],[82,-27],[17,-95],[118,-33],[47,-67],[88,67],[53,83],[76,17],[24,33],[-47,72],[47,28],[47,-55],[123,-23],[70,-44],[41,5],[47,-27],[53,-6]],[[33753,28357],[18,-50],[-65,-39],[-64,-145],[-36,-133],[-5,-56],[-36,-55],[-11,-50],[-65,-100],[-47,-162],[-35,-55],[0,-178],[23,-78],[-53,-56],[0,-39],[-52,-22],[-12,-39],[0,-100],[29,-173],[65,-183],[88,-200],[47,-56],[47,-100],[76,-139],[159,-239],[41,-23]],[[33865,25887],[-65,-11],[-135,95],[-35,33],[-47,95],[-41,22],[-94,22],[-35,67],[-77,72],[-117,78],[-53,-105],[-65,11],[-93,-11],[-83,-34],[-41,-50],[-47,-17],[-53,23],[-70,-45],[-70,17],[-100,-45],[-53,67],[-71,28],[-23,-17],[-112,73],[-47,0],[-99,66],[-6,50],[-100,56],[-47,89],[-94,83],[-12,45],[-53,11]],[[31827,26655],[-11,-22],[-77,16],[-5,51],[-65,127],[-6,67]],[[9441,6525],[-6,61],[35,50],[65,61],[11,-61],[-52,-22],[-53,-89]],[[9453,6341],[-42,22],[-5,56],[41,22],[35,-22],[-29,-78]],[[9858,5913],[0,55],[47,12],[70,77],[65,123],[17,67],[106,-106],[18,-95],[-12,-94],[-47,-39],[-30,-89],[-29,-22],[-47,-73],[-70,-22],[-77,11],[-11,-55],[-36,-39],[18,-34],[-12,-39],[-53,-5],[-35,-28],[-64,28],[-41,0],[23,-61],[-112,-45],[24,-39],[-24,-22],[-76,-22],[-12,-56],[-105,33],[-65,-11],[-41,-44],[18,-56],[58,-44],[0,-56],[24,-39],[64,-56],[6,-50],[-64,45],[-41,55],[-59,-22],[-47,-72],[12,-45],[-47,-55],[-6,-56],[-41,-55],[41,-73],[17,39],[47,11],[18,-50],[-70,-72],[-53,-11],[-59,-73],[-112,-55],[-35,17],[18,94],[-29,22],[5,62],[-23,61],[6,55],[64,34],[53,94],[30,0],[64,50],[-23,117],[-59,134],[94,61],[64,0],[30,55],[59,45],[-6,33],[47,28],[99,17],[30,50],[59,22],[35,67],[-24,28],[-94,39],[-53,-6],[-29,106],[24,11],[-36,61],[24,39],[29,-11],[100,17],[106,-50],[-24,-17],[-6,-17],[47,22],[30,-77],[-36,27],[-41,6],[0,5],[-6,-22],[65,-55],[106,39],[29,38],[41,89],[71,34]],[[9200,5885],[-100,11],[12,61],[47,-11],[41,17],[47,-45],[-47,-33]],[[8067,5596],[41,61],[35,-33],[-76,-28]],[[7157,5090],[-29,55],[88,39],[41,6],[82,-100],[-35,-45],[-6,-72],[-41,28],[-35,72],[-65,17]],[[9441,5056],[35,56],[65,61],[17,-33],[-70,-67],[-47,-17]],[[8331,4645],[-17,83],[29,72],[35,0],[0,-55],[-23,-17],[6,-56],[-30,-27]],[[15817,4166],[-41,45],[0,28],[88,-17],[-12,-45],[-35,-11]],[[15676,3910],[-35,23],[17,105],[77,0],[17,-33],[-17,-67],[-59,-28]],[[4474,1474],[-88,50],[29,89],[-41,33],[41,45],[6,44],[29,34],[-29,61],[35,11],[30,-94],[41,-28],[-6,-50],[41,-23],[64,-11],[24,-39],[59,-11],[41,-61],[-65,-17],[-94,6],[-117,-39]],[[4239,1697],[-47,50],[-6,50],[41,11],[59,-34],[23,-72],[-29,-22],[-41,17]],[[4239,1697],[-41,-23],[-41,28],[35,39],[47,-44]],[[3311,1318],[-35,6],[-18,39],[47,39],[59,-17],[6,-33],[-59,-34]],[[2331,629],[-123,77],[58,56],[-35,95],[-100,-17],[18,50],[35,11],[41,-17],[12,73],[53,-56],[129,0],[-6,33],[70,112],[36,-34],[35,89],[-24,34],[53,61],[6,50],[47,-11],[-12,-84],[-52,-50],[5,-39],[-47,-50],[-52,-83],[-6,-84],[11,-33],[-11,-122],[-24,-28],[-47,22],[-41,-50],[-29,-5]],[[135,868],[-135,16],[41,62],[24,-12],[58,17],[71,-28],[-59,-55]],[[1761,462],[-76,39],[-47,-6],[-100,22],[-64,45],[-6,-50],[-71,11],[-35,55],[47,6],[76,72],[41,11],[-11,45],[17,78],[59,78],[53,-61],[106,-12],[23,-27],[71,-28],[23,-73],[-6,-66],[-47,-28],[6,-67],[-41,11],[-18,-55]],[[1984,617],[-52,17],[17,50],[35,-67]],[[2026,389],[-30,17],[6,56],[53,-23],[-29,-50]],[[1609,0],[-71,11],[35,45],[59,-6],[-23,-50]],[[32784,30827],[-17,-17],[12,-83],[-24,-28],[6,-100],[-12,-84],[71,-55],[-30,-23],[-88,-116],[-58,0],[-65,22],[-59,-39],[-82,0],[-23,39],[-59,28],[-123,-23],[-59,84],[0,39],[-147,-11],[-41,39],[-94,-56],[-47,67],[-82,-28],[-6,17]],[[31757,30499],[-12,5]],[[31745,30504],[-23,28],[-6,22]],[[31716,30554],[-12,6],[-2,-1]],[[31702,30559],[-4,1],[-47,-17]],[[31651,30543],[-47,34],[-52,66],[0,73],[29,77],[-12,50],[29,28],[-5,56],[17,39],[59,39],[-35,67],[35,66],[0,84],[-18,33],[59,84],[82,-34],[65,17],[141,83],[23,50],[41,34],[0,39],[-47,55],[-111,84],[-47,-17],[-112,50],[-17,50],[-36,11],[24,50],[12,167],[-53,22],[-77,0],[-58,45],[-47,-6],[-94,67]],[[31399,32106],[-6,17],[129,250],[65,39],[29,45],[47,22],[35,61],[77,56],[58,133],[59,206],[41,67],[76,244],[12,78],[-17,34]],[[32004,33358],[152,-6],[88,-22],[24,33],[100,28],[0,-44],[29,-62],[47,-5],[70,-39],[24,-39],[88,28],[6,-61],[53,-17],[58,22],[100,-50],[30,45],[52,-23],[18,-39],[53,-33],[70,0],[41,-44],[0,-73],[18,-44],[41,-6],[24,-39],[76,6],[23,-28]],[[24031,22878],[23,-61],[-6,-67],[30,-83],[76,-50],[23,-84],[-41,-44],[-76,33],[-47,-22],[6,-50],[-100,-89],[-29,-78],[-53,-45],[0,-61],[59,-22],[35,-56],[-6,-44],[53,-6],[23,-39],[0,-89],[-35,6],[-18,-122],[30,0],[11,-56],[36,6],[70,61],[71,0],[64,-39],[82,22],[18,22],[82,-33],[6,-39]],[[24418,21749],[0,-122],[53,-39],[41,-78],[65,-28],[0,-39],[47,-28],[35,28],[53,-28]],[[24712,21415],[-36,-39],[-35,-105],[-64,-28],[5,-89],[30,-56],[-71,-5],[0,-34],[-158,-111],[-76,-28],[-30,-78],[-41,45],[-41,-17],[-76,28],[-47,0],[-71,39],[-88,-6],[-147,45],[-35,55],[-88,0],[0,28],[-70,28],[-36,39],[12,78],[-29,55],[-71,12],[-23,22],[35,55],[29,-16],[53,44],[-88,89],[-29,-5],[-18,50],[-47,0],[-64,39],[-53,-6],[0,39],[-35,33],[-59,12],[-76,144],[-59,22],[-59,-16],[-12,67],[24,72],[-18,17],[24,77],[82,17],[6,39],[59,22],[-18,45],[-106,55],[6,56],[29,83],[94,6],[24,22],[-6,50],[-29,39],[-36,-5],[-17,89],[-41,22],[-53,56],[-53,5],[29,100],[30,6]],[[22974,22717],[35,-89],[176,39],[100,61],[88,-6],[106,45],[53,-11],[88,44],[76,11],[94,-11],[106,61],[64,0],[71,17]],[[24694,22049],[18,-94],[-47,5],[-36,-89],[-64,23],[-47,-45]],[[24518,21849],[-24,17],[0,61],[59,61],[88,11],[53,50]],[[24465,21827],[41,-56],[-53,-50]],[[24453,21721],[12,39],[-41,56],[41,11]],[[24371,20809],[-47,61],[59,0],[29,-33],[-41,-28]],[[13733,19719],[-6,-56],[-118,-78],[-35,-50],[71,-72],[52,0],[106,78],[76,5],[53,-11],[59,-50],[70,-161],[-5,-84],[-59,-66],[23,-34],[-11,-39],[-94,-55],[-65,-6],[-23,-44],[-47,-45],[-88,-33],[-30,61],[-70,39],[0,94],[41,0],[35,45],[59,39],[17,39],[-35,50],[0,50],[-23,22],[-71,6],[-35,-17],[-65,17],[-64,-34],[-59,-50],[-123,17],[-6,-50],[-76,-84],[-36,-94],[-76,-50],[-100,-106],[-41,-28],[-41,6],[53,67],[29,83],[24,11],[6,67],[47,28],[17,72],[-53,6],[-35,27],[-12,67],[-64,61],[-59,12],[-41,61],[-41,22],[-29,44],[0,39],[-47,106],[-47,45],[0,61],[52,67],[6,66],[36,100],[70,0],[65,-100],[-30,-72],[53,-11],[18,28],[52,-11],[47,-56],[-11,-128],[-36,-6],[24,-72],[-35,-28],[82,-61],[35,-11],[65,67],[88,-39],[23,11],[59,-61],[53,5],[-30,45],[-52,39],[-30,78],[-29,33],[-6,95],[29,22],[6,78],[-135,111],[-70,-11],[-71,22],[-11,28],[-100,-45],[-12,67],[29,28],[30,89],[-71,-28],[-11,50],[-42,11],[18,-78],[-59,-22],[18,67],[-53,56],[-41,66],[-70,11],[-65,56],[-6,61],[47,34],[-6,44],[-47,72],[18,34],[12,89],[52,-28],[177,-17],[47,-22],[41,33],[35,-27],[53,33],[0,-61]],[[12183,22967],[-18,-78],[29,-78],[0,-39],[-64,-77],[-24,50],[12,66],[-35,39],[-41,-55],[-24,55],[-53,-33],[0,156],[18,39],[-12,50],[35,44],[30,84],[41,16],[-41,78],[0,61],[23,84],[65,39],[53,-17],[47,78],[82,61],[47,-39],[29,-50],[-23,-94],[-47,-23],[47,-44],[-30,-117],[-47,-72],[-58,-45],[-53,-72],[12,-67]],[[11860,22216],[0,45],[-53,22],[-35,50],[23,106],[12,133],[23,78],[-6,72],[18,39],[47,-27],[-6,-56],[71,17],[23,55],[47,-39],[6,-33],[59,11],[29,-17],[-65,-94],[12,-28],[-64,-100],[11,-67],[-23,-11],[-12,-61],[-53,-34],[-64,-61]],[[12136,22628],[-6,61],[70,6],[-64,-67]],[[12811,21376],[-47,17],[-29,33],[17,34],[-76,66],[35,67],[29,22],[-17,56],[58,56],[59,-34],[65,-5],[-24,-89],[53,-28],[12,-100],[-106,-22],[-29,-73]],[[12500,20853],[-47,39],[11,39],[42,11],[35,-61],[-41,-28]],[[12840,20714],[-23,34],[64,72],[47,-44],[-41,-17],[-47,-45]],[[12241,20592],[-29,17],[41,122],[29,-39],[-5,-89],[-36,-11]],[[12993,20586],[-18,28],[18,50],[29,17],[53,-39],[-65,-22],[-17,-34]],[[12165,20192],[29,38],[-23,51],[6,38],[35,28],[12,61],[64,73],[-6,94],[83,28],[64,0],[59,45],[23,-23],[-29,-66],[-53,-28],[-23,-139],[-94,-100],[-35,-56],[-112,-44]],[[11678,20358],[-47,17],[-41,39],[41,39],[88,22],[12,-72],[-53,-45]],[[11549,20219],[11,62],[47,-12],[-58,-50]],[[11566,19413],[-23,28],[0,94],[-12,50],[23,28],[-35,78],[-76,5],[35,67],[35,-22],[36,44],[-18,73],[18,50],[35,0],[29,72],[65,28],[-53,-150],[0,-84],[64,11],[42,39],[70,0],[0,-66],[-65,-39],[-17,-45],[-53,6],[-29,-28],[-30,-67],[30,-33],[5,-45],[-58,6],[0,-61],[-18,-39]],[[12605,19869],[-41,11],[35,72],[53,-22],[-47,-61]],[[12611,19630],[-35,61],[59,-11],[-24,-50]],[[11507,19474],[-11,33],[-77,23],[-35,72],[35,0],[12,50],[53,0],[35,-67],[-12,-111]],[[11343,19374],[0,50],[-94,67],[18,39],[76,-28],[29,-67],[-29,-61]],[[11202,19290],[-53,56],[-6,67],[71,50],[53,-39],[17,-56],[-82,-78]],[[11026,18873],[-35,11],[-30,62],[-152,-6],[-35,-28],[-30,39],[-47,11],[100,56],[24,61],[-24,39],[18,50],[-30,28],[12,55],[-18,28],[24,50],[47,0],[35,-27],[12,-51],[82,12],[53,61],[35,0],[59,-39],[29,-72],[18,-84],[58,-44],[24,-62],[-141,-11],[-29,39],[-59,-22],[-23,-56],[58,-44],[-35,-56]],[[11431,19246],[-35,5],[41,101],[35,-39],[-41,-67]],[[32004,33358],[64,111],[6,67],[-23,33],[41,72],[-6,34],[29,55],[76,17],[47,89],[65,184],[41,211],[24,206],[5,139],[-23,200],[-35,100],[-35,67],[-89,100],[-88,45],[-105,-6],[-100,-89],[-41,22],[-94,0],[-12,78],[-35,11],[-24,56],[30,28],[-30,33],[-17,61],[164,-44],[30,-28],[88,28],[82,72],[53,61],[58,95],[53,117],[35,122],[-5,45],[23,50],[47,228],[-6,66],[-23,39],[-53,23],[-6,27],[-82,73]],[[32133,36256],[152,0],[36,72],[58,17],[41,-17],[36,-56],[146,17],[71,-28],[111,34],[100,-17],[53,89],[47,17],[65,-11],[35,-73],[41,17],[94,-61],[47,-50],[64,-11],[-23,55],[88,11],[94,-61],[88,56],[65,11],[52,39],[77,-6],[12,73],[52,50],[83,16],[-36,-161],[41,-28],[83,-11],[23,17],[76,-28],[30,-100],[0,-39],[-47,-22],[-24,-39],[-6,-89],[-17,-50],[17,-34]],[[34058,35855],[-23,-44],[-70,-11],[-24,-67],[-65,-45],[47,-33],[-29,-61],[24,-34],[-18,-55],[-53,-34],[24,-66],[-12,-28],[-6,-161],[41,-112],[18,-78],[-47,-16],[-53,39],[-47,-6],[-24,-50],[0,-78],[100,-39],[12,-28],[-76,-83],[-59,-45],[35,-55],[53,-50],[-6,-78],[-41,-111],[-65,-34],[-41,-89],[-5,-55],[-47,-50],[11,-34],[-58,-44],[-24,-39],[12,-61],[-41,-12],[-12,-50],[47,-22],[35,-117],[-6,-61],[41,-11],[12,-56],[53,-16],[70,-56],[-35,-33],[-6,-56],[83,-39],[-65,-28],[-47,-61],[35,-33],[-29,-84],[88,-22],[18,-44],[-30,-62],[-59,-66],[24,-89]],[[21670,24775],[-41,-50],[6,-50],[53,-22],[0,-67],[-88,-22],[-29,-123],[-59,-17],[-6,-89],[-65,-16],[-35,-45],[41,-44],[-29,-28],[12,-45],[-41,-33],[76,-83],[-65,-84],[-11,-44],[17,-56],[47,-11],[53,-45],[6,-94],[-12,-39],[18,-44]],[[21518,23624],[-41,33],[-59,-33],[-53,-12],[-23,34],[-47,0],[58,-89],[-82,-84],[-41,0],[0,-89],[-41,11],[-53,-61],[-117,-11],[-12,45],[-106,16],[12,-44],[59,11],[-12,-100],[-129,-61],[-6,-67],[-35,-28],[11,-56],[-47,-16],[-70,16],[-88,39],[-47,-27],[-12,-56],[-41,17],[-41,55],[-106,17],[-23,78],[-41,17],[-141,-62],[0,-50],[-65,0],[-135,-61],[-64,39],[-18,45]],[[19862,23090],[18,33],[-18,56],[12,33],[-18,56],[-41,61],[-47,16],[-23,62],[35,111],[-29,5],[-36,106],[-6,111],[24,73],[-88,72],[-65,111],[0,145],[41,61],[6,56],[-47,39],[-53,72]],[[19527,24369],[42,33],[17,67],[41,-22],[30,33],[123,17],[17,44],[-29,100],[29,12],[53,-28],[53,5],[65,39],[47,0],[-24,61],[100,78],[18,134],[35,61],[106,-17],[52,-39],[36,17],[135,-44],[53,-28],[41,-89],[41,-6],[47,50],[-6,45],[47,0],[70,28],[12,61],[123,39],[35,-39],[-29,-45],[94,-33],[94,17],[29,-51],[71,-55],[-30,-45],[53,-27],[-17,-67],[23,-50],[53,33],[53,6],[82,39],[29,-28],[77,11],[135,117],[17,-28]],[[21518,23585],[-82,11],[-6,28],[64,16],[24,-55]],[[13421,20853],[47,73],[112,16],[35,56],[-35,89],[-47,-22],[-18,44],[106,23],[29,27],[-5,45],[76,28],[23,61],[47,-39],[-6,-72],[42,-17],[35,-61],[53,0],[23,33],[94,0],[65,28],[11,56],[41,55],[-23,56],[18,72],[47,17],[41,61],[6,44],[-36,84],[36,17],[17,72],[71,22],[23,50],[176,-5],[71,39],[11,44],[36,33],[52,12],[30,-23],[88,11],[59,-5],[29,-28],[65,22],[58,-61],[35,-17],[47,28],[30,73],[53,44],[64,17],[30,-17],[-42,-83],[6,-67],[-23,-89],[-29,-39],[-42,-6],[18,-50],[53,-27],[47,-62],[-35,-22],[41,-61],[35,-89],[23,-11],[59,-111],[47,-39],[24,27],[76,-27],[47,0]],[[15588,21182],[-24,-89],[30,-67],[-41,-39],[17,-39],[-100,-22],[-129,16],[-47,23],[-29,-23],[-76,-5],[-83,-61],[-11,-50],[-59,-23],[-12,-144],[-100,-84],[30,-16],[29,-95],[-35,-78],[-35,0],[11,-100],[53,-44],[47,-12],[-23,-44],[-18,-95],[-53,-44]],[[14126,19824],[23,106],[-52,122],[-47,28],[-30,45]],[[25962,24541],[-105,34],[-30,61],[-76,61],[-53,111],[-47,-44],[-82,5],[-41,-50],[-53,6]],[[25222,25698],[30,45],[-12,28],[65,55],[-6,111],[105,62],[106,-45],[47,11],[53,-16],[94,22],[64,-11],[36,44],[47,-16],[58,38],[18,-44],[41,17],[59,-6],[29,39],[135,0],[18,78],[47,11],[-12,106],[-59,50],[6,50],[-76,33],[-6,73],[-47,11],[18,116],[52,45],[-17,39]],[[26115,26644],[47,128],[-12,33],[47,34],[106,166],[-71,39],[-47,73]],[[26185,27117],[71,11],[17,94],[71,6],[59,28],[76,-34],[47,-83],[-24,-67],[30,-11],[58,33],[36,62],[52,27],[12,95],[71,44],[29,51],[94,94],[59,-5],[23,-45],[100,39],[41,28],[71,-34],[5,-55],[77,28],[6,27],[52,17],[12,-50],[59,-33],[64,-17],[24,28],[59,0],[29,-45],[76,-39],[47,6]],[[27688,27317],[0,-33],[71,-34],[53,-72],[-6,-84],[-65,-55],[-59,-95],[-5,-55],[29,-56],[-53,-39],[-29,-94],[47,-56],[70,-56],[-29,-39],[-18,-83],[-88,-50],[-35,-89],[-35,-6],[-41,-55],[-12,-45],[-35,-11],[-42,33],[-105,-27],[-30,-34],[-17,-78],[-41,6],[-18,-72],[24,-28],[105,-6],[-6,-39],[47,-5],[94,-73],[41,-44],[24,-78],[59,-39],[29,-44],[-59,-95],[94,-83],[18,-56],[64,-28],[47,-50],[-17,-22],[17,-67],[-76,-50],[82,-100],[-70,-50],[12,-95],[-89,-61],[6,-44]],[[32133,36256],[17,83],[6,111],[-12,73],[-46,83],[-89,-11],[-17,78],[76,61],[47,0],[18,45],[53,39],[52,111],[112,78],[23,0],[89,-62],[64,28],[112,73],[29,-17],[53,39],[47,89],[59,178],[29,183],[6,189],[-30,51],[-47,33],[59,28],[35,78],[0,133],[18,67],[106,-56],[11,-33],[53,-50],[65,-34],[59,12],[99,89],[100,-28],[77,-78],[-18,-106],[0,-67],[23,-122],[30,-217],[47,-178],[88,-83],[82,0],[59,22],[29,44],[70,56],[18,61],[0,134],[24,78],[111,-34],[82,-78],[30,-50],[82,-50],[41,0],[35,-61],[41,-33],[47,0],[65,39],[53,66],[58,117],[36,167],[11,139],[47,56],[12,44],[-23,84],[-36,72],[-47,61],[-64,56],[-35,5],[-71,-83],[24,-17],[-59,-50],[-76,-28],[-24,-33],[-82,22],[-88,0],[-47,-50],[-65,6],[-35,-28],[-65,0],[-93,-72],[-47,0],[-36,33],[0,106],[24,33],[12,100],[41,134],[-12,16],[41,67],[29,150],[112,123],[23,61],[-17,50],[47,22],[53,-28],[35,-50],[59,-33],[123,-6],[70,-33],[165,-178],[105,-56],[94,-22],[59,6],[159,78],[82,77],[17,-50],[-29,-72],[-76,-256],[-36,-183],[12,-101],[-17,-272],[0,-134],[23,-233],[29,-184],[30,-144],[76,-217],[59,-95],[82,-44],[59,33],[29,-50],[76,-56],[6,-22],[88,-72]],[[35432,36306],[-76,-61],[-82,-23],[-30,-33],[0,-56],[-70,-50],[-53,0],[-64,56],[-77,0],[-117,-72],[-59,-12],[-29,17],[-30,61],[-47,-50],[-129,-50],[-47,-44],[-53,5],[-64,-22],[-59,-44],[6,-45],[-65,-17],[-117,-78],[-88,23],[-24,44]],[[24177,23751],[-41,-16],[-17,-61],[11,-45],[-58,-50],[11,-44],[-52,-167],[47,-11],[11,-34],[-47,-50],[6,-72],[30,-11],[17,-162],[-23,-55],[6,-61],[-47,-34]],[[22974,22717],[41,22],[47,-5],[70,44],[82,17],[71,78],[141,111],[12,28],[64,50],[0,83],[88,34],[47,61],[-58,28],[-18,89],[59,0],[-18,44],[53,22],[-24,45],[-41,22],[-6,56],[-23,16]],[[23561,23562],[82,62],[18,66],[-30,89],[-47,61],[47,151],[-29,61],[76,11],[-47,39],[-176,61],[12,134],[35,44]],[[23232,23017],[41,11],[24,-33],[-71,-50],[6,72]],[[27688,27317],[100,94],[29,62],[0,66],[30,45],[64,17],[-35,44],[6,56],[59,44],[53,6],[-6,72],[29,95],[-18,94],[0,106],[24,33]],[[28023,28151],[106,73],[70,116],[41,34],[-29,55],[17,23],[94,39],[30,-17],[100,-6],[82,-44],[-30,-67],[6,-28],[-35,-44],[65,-39],[64,-11],[24,61],[58,39],[100,-11],[88,50],[159,-22],[-18,27],[18,95],[41,28],[76,22],[65,139],[82,22],[35,28],[71,0],[58,22],[30,-22],[53,0],[35,-72],[-6,-128],[29,-50],[30,0],[23,-56],[100,-33],[29,-34],[-29,-66],[29,-34],[-41,-78],[30,-11],[11,-61]],[[29820,26421],[46,-128],[-17,-38]],[[15588,21182],[64,-28],[47,16],[65,-72],[106,6],[100,-17],[76,6],[-6,33],[94,83],[59,101],[41,16],[41,-11],[70,33],[53,-38],[41,16],[47,-28],[76,-128],[53,-55],[24,-111],[-24,-89],[12,-56],[-41,-67],[-18,-78],[-35,0],[-41,34],[-53,5],[-17,-28],[35,-38],[0,-39],[-94,-12],[-18,-55],[-76,17],[-18,27],[-70,-16],[-12,-45],[35,-156],[147,-50],[47,39],[147,39],[106,-72],[117,-11],[153,55],[0,-50],[-30,-50],[-100,-128],[12,-33],[-47,-44],[71,-34],[53,39],[58,-11],[-35,-50],[6,-45],[53,-39],[117,-11],[-17,-33],[-42,17],[-41,-23],[0,-39],[-41,-33],[6,-67],[59,-50],[88,-44],[88,-6],[-82,-161],[-6,-39],[53,-22],[-71,-73],[-47,-22],[-82,-11],[-23,39],[-36,-78],[24,-56]],[[16909,19251],[-71,-22],[-5,89],[29,67],[-24,28],[-58,22],[-118,17],[-35,-11],[-12,-67],[-29,-56],[-82,-16],[-147,16],[-41,-44],[-65,5],[-53,39],[18,56],[-82,78],[-71,-17],[-29,-33],[-59,0],[-58,-23],[-36,67],[-23,0]],[[26144,24291],[-35,28],[-94,-34],[-82,-44],[-30,-111],[6,-100],[-41,-89],[-53,-78],[-99,-123],[-30,-83],[-11,-89],[52,-56],[0,-78],[-35,-55],[76,0],[24,-17],[82,-11],[41,-22],[30,-61],[129,-51],[82,-61],[65,-5],[11,-50],[53,5],[41,-16],[35,-67],[53,11],[24,-22],[6,-67],[-77,-50],[-35,-78],[47,-95],[-12,-27],[24,-56],[-59,-6],[-47,-50],[-129,17],[-18,45],[124,-6],[-12,83],[-65,-55],[-35,22],[-41,-11],[-53,22],[-59,-33],[6,72],[-47,28],[-23,-33],[12,-39],[-53,-34],[-59,-61],[-35,0],[-12,67],[-41,-45],[-100,-5],[0,-50],[-23,-39],[-53,11],[-65,-22],[-129,-73],[-23,45],[-59,-61],[-29,0],[-53,-95],[35,-95],[-35,-22],[-77,6],[-47,-50],[71,0],[-6,-56],[41,-17],[-6,-44],[18,-84],[-18,-16],[-100,33],[41,-78],[-64,-61],[-53,-17],[-70,-50],[-47,6],[-83,-111],[-64,-151],[-35,-111]],[[24418,21749],[35,-28]],[[24465,21827],[53,22]],[[24694,22049],[29,62],[106,-6],[59,-22],[-18,72],[18,83],[0,123],[17,22],[-11,56],[-30,22],[47,39],[0,39],[30,44],[-71,112],[65,33],[-53,44],[-18,73],[-41,44],[35,89],[65,34],[47,-6],[112,17],[41,100],[-36,78],[-70,11],[-65,56],[-105,0],[-65,50],[-6,39],[53,72],[-18,44],[42,50],[-59,139]],[[19862,23090],[-6,-78],[-23,-45],[-36,28],[-52,-39],[0,-83],[-59,-28],[-35,28],[-82,5],[-42,50],[-23,78],[-59,-72],[-29,5],[-170,-66],[-53,16],[-24,-94],[-70,-28],[-71,-11],[-117,16],[-24,-22],[-76,0],[-70,-72],[-65,50],[-41,-11],[-18,-72],[-64,-12],[35,-44],[-29,-17],[-112,-22],[-29,-56],[-30,17],[-58,-33],[-36,44],[-41,11],[-52,-66],[-47,-6],[-24,56],[53,39],[-82,61],[6,33],[-41,67],[0,83],[-30,17],[-64,-11],[-94,28],[-147,-56],[0,-33],[-88,-100],[-77,-45],[-11,-50],[35,-56]],[[17590,22494],[-65,-16],[-35,50],[-88,22],[6,39],[-47,94],[6,84],[-35,-11],[-41,67],[-36,122],[24,61],[-24,56]],[[17255,23062],[-17,55],[-36,23],[24,61],[59,16],[47,45],[41,89],[-24,11],[18,84],[64,94],[-58,56],[129,83],[47,11],[6,45],[29,28],[0,50],[35,0],[36,-50],[35,-17],[35,55],[35,-22],[47,22],[65,-38],[76,77],[59,-39],[135,-11],[64,34],[83,72],[70,-6],[53,23],[59,-6],[-18,72],[-70,17],[-42,34],[89,105],[123,34],[64,83],[106,167],[53,50],[41,6],[29,-39],[77,-28],[58,28],[65,0],[35,-45],[53,28],[47,-6],[65,17],[29,-22]],[[19275,24408],[65,-17],[152,22],[35,-44]],[[19416,22817],[-47,6],[-29,61],[82,50],[47,-28],[-36,-33],[-17,-56]],[[19592,22789],[-23,34],[46,33],[18,-28],[-41,-39]],[[19381,22639],[-65,50],[-47,78],[35,50],[47,0],[65,-95],[-35,-83]],[[19175,22594],[-29,39],[29,78],[106,17],[17,-61],[-123,-73]],[[17649,22539],[-18,55],[41,67],[59,22],[53,-33],[-83,-78],[-52,-33]],[[17936,22311],[36,78],[-47,72],[-71,67],[6,78],[65,-12],[29,-44],[82,-11],[-64,78],[23,50],[65,-22],[6,-101],[-12,-66],[-30,-23],[30,-94],[-65,-39],[-53,-11]],[[18788,22483],[-41,6],[-30,44],[47,45],[71,11],[17,39],[53,11],[-47,-89],[0,-56],[-70,-11]],[[18523,22378],[0,33],[-88,22],[30,50],[70,-28],[41,-33],[-53,-44]],[[18383,22405],[-30,34],[53,39],[12,-39],[-35,-34]],[[18171,22205],[-29,33],[-100,-5],[-47,-22],[-23,55],[64,45],[41,11],[-17,61],[17,50],[47,39],[41,-50],[-47,-39],[47,-44],[-23,-45],[64,-11],[-35,-78]],[[18676,22361],[-29,5],[11,62],[65,33],[47,-45],[-94,-55]],[[48026,47013],[53,56],[70,28],[65,55],[82,145],[76,67],[41,5],[53,84],[106,28],[41,78],[59,0],[141,38],[53,6],[129,-33],[76,-67],[-18,-61],[-94,-50],[-11,-78],[47,-17],[41,-56],[-65,-122],[-70,-5],[-47,-28],[-77,33],[-193,-5],[-135,-56],[-171,-106],[-70,-22],[-117,-61],[-65,0],[-76,-22],[-59,-56],[-47,-6],[-59,-39],[-35,-44],[-53,-6],[-152,-89],[-65,-89],[-24,-5],[-88,-89],[-11,-39],[-124,-61],[-29,-39],[-106,11],[-100,-39],[-46,5],[-89,62],[0,55],[-88,0],[-70,-33],[-47,-56],[0,-66],[23,-56],[-58,-89],[-6,-33],[-88,-84],[-35,6],[-65,-39],[-18,-39],[-70,-11],[-147,-89],[-23,-34],[-59,-28],[-59,-89],[-64,-66],[-41,-95],[-77,-61],[-111,-22],[-77,22],[-47,-22],[-94,-89],[-41,-61],[-29,-84],[-76,-61],[-147,28],[-29,44],[23,84],[35,50],[47,5],[77,73],[-42,55],[6,84],[88,-84],[83,45],[11,83],[-53,39],[83,11],[58,-50],[88,28],[106,89],[35,111],[-11,56],[-130,11],[-47,78],[53,55],[53,-11],[71,-61],[99,34],[36,122],[199,83],[41,28],[177,156],[58,22],[-12,72],[47,167],[65,0],[29,-50],[135,-5],[77,50],[-12,67],[29,72],[47,50],[94,44],[88,17],[47,-17],[36,34],[23,78],[-29,5],[11,73],[-23,33],[-24,117],[18,33],[123,134],[59,-39],[76,-212],[65,-117],[76,-27],[94,-6],[241,22],[182,50]],[[35239,46763],[-18,50],[0,78],[47,50],[47,84],[-6,27],[53,62],[23,72],[-35,50],[-6,67],[18,66],[59,-61],[17,-44],[41,-17],[71,17],[100,5],[111,61],[41,62],[6,72],[59,56],[59,5],[35,-22],[11,-50],[53,-61],[53,-28],[24,-67],[52,-56],[112,-61],[112,-83],[152,-184],[159,-155],[88,-95],[152,-145],[112,-89],[18,-78],[70,-66],[18,-95],[88,-72],[47,-100],[29,-11],[106,-151],[129,-122],[117,-78],[18,-33],[94,-73],[141,-161],[182,-117],[264,-155],[-6,-17],[88,-56],[141,-66],[41,-84],[88,-56],[147,-72],[235,-94],[317,-117],[158,-45],[235,-55],[153,-23],[53,6],[47,-28],[158,-28],[77,6],[6,-139],[82,-106],[-6,-22],[123,-61],[253,-61],[240,-23],[235,11],[88,17],[77,50],[29,45],[53,22],[76,61],[35,72],[106,56],[35,61],[112,61],[123,101],[106,55],[64,117],[65,50],[82,89],[24,56],[52,-23],[24,-100],[23,-16],[-35,-67],[0,-39],[-117,-161],[-41,-28],[-47,-106],[6,-50],[-42,-67],[-70,-61],[-106,-133],[-17,-56],[-47,-72],[-6,-128],[-59,-61],[0,-62],[24,-83],[94,-122],[41,-89],[193,-67],[88,-22],[89,-45],[17,-44],[-35,-34],[-53,106],[-41,-17],[-29,39],[-112,34],[-18,-51],[94,-178],[0,-61],[42,-161],[76,-134],[47,-55],[105,-84],[188,-66],[71,89],[111,72],[24,33],[76,39],[24,39],[135,-16],[76,38],[82,-27],[-6,-56],[-94,-50],[-58,-6],[-88,-39],[-59,6],[-65,-22],[-23,-56],[-53,-5],[-76,-217],[-47,-28],[-65,33],[-123,-5],[-118,-17],[-41,-22],[-47,11],[-94,-34],[-82,-50],[-58,34],[-53,-17],[-59,-44],[6,-95],[-35,-6],[-24,-50],[-100,-61],[-17,-61],[-83,-39],[-99,17],[-94,-11],[-71,66],[-11,39],[35,34],[-59,22],[-76,-11],[-65,-67],[-47,-94],[47,-51],[71,-44],[-71,-11],[-135,17],[-82,22],[-153,-6],[-41,11],[-82,-27],[-217,61],[0,39],[-112,44],[-158,-17],[-112,-27],[-147,-73],[-82,-27],[-246,-145],[-112,-84],[-211,-189],[-106,-83],[-176,-161],[-141,-151],[-170,-216],[-118,-190],[-94,-189],[-23,-128],[23,-83],[24,-17],[0,-61],[-24,-39],[0,-83],[-23,-100],[0,-56],[-30,-17],[-64,-83],[-35,-111],[-47,0],[-100,66],[-29,73],[-47,44],[-106,61],[-123,50],[-71,73],[-100,33],[-76,0],[-100,17],[-88,44],[-18,28],[-76,28],[-94,11],[-41,39],[-123,78],[-47,5],[-159,62],[-58,66],[-71,11],[-70,34],[-141,89],[-229,206],[-188,33],[-88,28],[-123,94],[-47,50],[-41,17],[-36,45],[-188,77],[-99,23],[-141,16],[-135,-11],[-200,-50],[-147,-61],[-129,-72],[-270,-195],[-88,-28],[-129,-100],[-141,-156],[-29,-55],[-59,11],[-76,67],[41,22],[-83,67],[-17,94],[-53,89],[-65,22],[-64,67],[-41,6],[-6,66],[-41,45],[-88,67],[-59,11],[-211,-39],[-94,44],[-112,-22],[-88,-83],[-76,-89],[-106,-184],[-41,-100],[-35,-139],[0,-67],[41,-83],[82,-39],[82,-6],[47,-44],[165,-123],[35,-44],[123,-45],[153,45],[58,-6],[30,28],[100,-50],[29,-67],[35,-22],[41,-78],[65,-50],[82,-44],[76,-100],[41,-73],[106,-55],[59,0],[129,-45],[71,-44],[0,-50],[70,-34],[0,-33],[-53,-34],[-82,0],[-29,-22],[-47,-78],[-83,-50],[-23,11],[-94,-27],[-70,55],[-141,56],[-36,-6],[-117,34],[-76,-17],[-65,-56],[-18,50],[71,56],[-47,61],[-76,11],[-71,-28],[-47,-144],[-70,-34],[-71,-61],[-117,-5],[-53,-61],[-12,-240],[18,-16],[-59,-84],[-135,-22],[-53,-28],[-94,-28],[-82,-155],[-59,-23],[-76,62],[-82,-6],[-24,-17],[-93,61],[-47,134],[-47,95],[-12,122],[29,83],[18,106],[111,150],[6,106],[82,5],[24,62],[-6,61],[29,67],[6,61],[-29,100],[-12,83],[-88,112],[-35,66],[-53,62],[-100,38],[-100,17],[-105,178],[-124,22],[-47,73],[18,28],[-29,72],[23,106],[35,11],[53,72],[30,78],[17,94],[-17,67],[5,61],[-46,189],[58,56],[30,61],[105,50],[229,11],[35,28],[18,50],[129,50],[35,95],[47,67],[100,-67],[35,-61],[94,28],[0,111],[71,55],[64,89],[24,56],[76,67],[176,89],[12,83],[-35,11],[-47,95],[-41,22],[-41,95],[-159,117],[-64,105],[17,34],[47,155],[-12,39],[100,6],[36,-11],[52,22],[30,50],[41,28],[35,-17],[182,-156],[76,-33],[-5,-33],[93,-34],[53,-5],[59,-45],[53,-11],[-6,-44],[29,-23],[100,11],[135,28],[24,34],[76,22],[94,5],[-24,-61],[12,-44],[53,-28],[117,-22],[112,-56],[41,11],[176,89],[147,139],[135,167],[12,139],[-6,67],[-71,128],[-58,89],[6,50],[47,100],[-6,39],[-65,89],[0,56],[-23,39],[-12,83],[53,78],[53,106],[135,61],[70,5],[47,50],[35,-16],[77,39],[41,39],[58,94],[47,161],[12,73],[-18,206],[6,61],[0,211],[-17,84],[58,100],[59,128],[71,89],[17,50],[12,172],[47,117],[6,183],[-24,184],[-58,239],[-47,128],[-77,178],[-182,356],[-11,39]],[[34205,46980],[-29,22],[12,56],[-36,56],[-41,105],[24,117],[53,0],[41,45],[41,-73],[-24,-72],[12,-84],[-6,-77],[-47,-95]],[[34428,46869],[83,78],[76,-56],[64,0],[77,-56],[29,-55],[12,-73],[-106,-89],[-70,-27],[-135,83],[-47,56],[-18,111],[35,28]],[[43118,44299],[-6,89],[94,106],[70,55],[59,100],[59,67],[135,100],[70,84],[12,100],[88,89],[47,111],[94,83],[35,12],[76,-23],[71,-44],[47,-84],[147,-44],[11,-17],[135,11],[106,-5],[176,22],[-35,-106],[-88,-66],[-53,44],[-53,6],[-70,-28],[-47,-45],[-12,-39],[-112,-77],[-11,-28],[-100,-17],[-147,6],[-100,-17],[-88,-67],[-35,-50],[-12,-61],[-129,-39],[-59,-28],[-70,-67],[-35,-77],[-53,-78],[-94,-89],[-41,-78],[0,-67],[-24,-28],[-129,-55],[-129,-17],[-123,-128],[-12,-89],[6,-61],[-35,-239],[-36,16],[18,123],[-94,5],[-117,-33],[-30,72],[18,50],[-41,150],[76,28],[35,78],[94,50],[88,73],[53,16],[41,50],[118,78],[17,33],[94,45],[30,39]],[[44814,43498],[6,22],[-53,50],[-52,11],[-6,34],[35,33],[-41,72],[47,34],[106,28],[105,5],[6,34],[88,61],[135,33],[94,-94],[47,-23],[-35,-66],[-35,16],[-65,-16],[-100,-56],[-53,-67],[-58,-5],[-24,-34],[-47,28],[-17,-56],[-83,-44]],[[44268,43314],[-111,12],[29,38],[77,-5],[5,-45]],[[43816,42958],[-17,73],[-65,66],[12,28],[117,34],[30,-28],[94,-6],[-53,-66],[-6,-56],[-112,-45]],[[43405,42869],[0,67],[65,0],[29,-55],[-94,-12]],[[31211,39849],[-53,39],[6,145],[-35,61],[53,111],[193,45],[30,-51],[-65,-77],[6,-84],[-53,-128],[-59,-22],[-23,-39]],[[31005,38614],[0,67],[59,0],[6,-50],[-65,-17]],[[23561,23562],[-76,-11],[-12,50],[-35,28],[-94,-44],[-88,-6],[-71,-44],[-29,0],[-12,-67],[-112,-17],[-93,-28],[-65,-5],[-41,33],[-82,0],[-88,61],[-36,11],[-123,101],[-35,-34],[-53,61],[-94,78],[-76,17],[-47,-11],[-71,16],[-111,-38],[-118,38],[-82,-27],[-23,55],[-106,-139],[-53,-5],[-41,33],[-59,-17],[-17,-27]],[[21670,24775],[59,-28],[76,45],[77,61],[0,67],[-24,44],[18,50],[-18,39],[-58,22],[17,73],[-6,44],[-70,28],[-6,72],[-24,78],[-23,11],[23,61],[-29,101],[-76,61]],[[21606,25604],[64,0],[59,39],[35,-11],[71,55],[100,34],[29,-39],[76,16],[59,-39],[53,56],[94,-28],[41,17],[100,0],[23,22],[53,-33],[88,5]],[[23279,23529],[0,33],[59,11],[12,-33],[-71,-11]],[[22398,22973],[18,50],[41,44],[47,11],[47,89],[35,34],[47,11],[47,39],[53,78],[71,50],[46,-73],[-58,-72],[-30,-94],[-164,-184],[0,-145],[41,-39],[12,-55],[41,-28],[18,-67],[-94,-33],[-118,-56],[-47,-44],[-164,-45],[6,39],[-59,28],[35,61],[-17,17],[-77,-11],[-17,105],[47,62],[41,-6],[41,22],[41,106],[23,17],[47,89]],[[33865,25887],[35,-55],[-41,-50],[-35,39],[-41,-6],[-135,-44],[-36,22],[-64,-6],[-124,-61],[-158,-133],[-76,-73],[-89,-117],[-64,-116],[-35,-117],[-12,-95],[12,-89],[35,-66],[-29,-73],[11,-72],[-23,-84],[-30,-50],[-52,0],[-47,-89],[-47,23],[-30,-39],[-70,5],[-24,-44],[-64,-11],[-41,22],[-82,0],[-47,-28],[-24,-56],[-47,-55],[-64,-11],[-112,-89],[-35,-100],[0,-67],[-77,-67],[-99,0],[-42,-11],[-41,22],[-23,67],[-112,50],[0,28],[124,0],[17,28],[53,0],[-12,78],[-29,16],[-23,89],[41,34],[-36,55],[30,39],[-47,84],[29,77],[59,34],[6,78],[-36,39],[-11,50],[-88,44],[41,22],[12,45],[46,67],[83,-28],[41,44],[-30,62],[18,50],[65,27],[47,51],[47,5],[41,33],[70,101],[82,55],[-17,89],[-129,139],[-53,-5],[-6,55],[-118,-44],[36,-45],[-83,-55],[-47,50]],[[32009,25654],[30,33],[0,50],[59,50],[-42,61],[6,39],[-35,62],[24,22]],[[32051,25971],[-12,33],[6,111],[17,45],[-23,67],[-47,78],[-24,11],[-47,78],[-23,116],[12,17],[-53,56],[-30,72]],[[26185,27117],[-11,94],[41,45],[-24,83],[-47,67],[53,33],[-6,61],[18,39],[-18,39],[41,100],[-29,39],[-29,89],[70,139],[-12,56],[-47,45],[88,55],[30,56],[-6,94],[23,106],[41,56],[-11,50],[70,50],[24,39],[47,16],[35,-22],[29,45],[123,-11]],[[26678,28580],[-47,-50],[12,-28],[-53,-78],[-41,-39],[24,-56],[105,-83],[89,-84],[58,0],[94,-33],[129,17],[83,-17],[76,11],[47,56],[70,44],[12,67],[24,22],[11,67],[-17,45],[47,72],[135,61],[129,11],[23,22],[94,17]],[[27782,28624],[59,-61],[82,-17],[18,-44],[-12,-73],[35,-39],[6,-100],[53,-139]],[[30254,26132],[47,61],[65,6],[41,28],[52,-45],[94,-22],[94,-11],[88,-50],[147,0],[47,-11],[47,-89],[82,-11],[24,-51],[147,6],[41,28],[58,5],[42,28],[29,-50],[0,-44],[76,55],[35,-22],[65,67],[94,5],[35,-22],[88,-5],[-12,38],[124,6],[105,-56],[42,-5]],[[32009,25654],[-41,11],[-82,-6],[-17,-44],[-47,55],[-36,-16],[-11,-117],[29,-56],[41,23],[47,-73],[-35,-22]],[[31857,25409],[-65,39],[-105,-17],[5,34],[-47,22],[-23,50],[-100,67],[-64,11],[-100,50],[-30,-45],[-52,-33],[41,-83],[-30,-23],[-6,-89],[-52,17],[-59,56],[-53,72],[-112,44],[-140,-5],[-47,5],[-77,106],[-29,-17],[-35,34],[-65,22]],[[31193,23529],[-82,11],[-82,78],[-6,145],[18,33],[100,-28],[41,-33],[29,-73],[0,-89],[-18,-44]],[[30876,22761],[-29,11],[-29,56],[52,117],[18,-56],[-12,-128]],[[30606,22439],[12,122],[65,-17],[0,-55],[-77,-50]],[[31311,22127],[-35,17],[-18,56],[47,100],[76,0],[47,-45],[-17,-94],[-47,-28],[-53,-6]],[[31534,21699],[-82,28],[0,39],[53,44],[35,-28],[17,-44],[-23,-39]],[[31933,19919],[-23,28],[-71,28],[-6,61],[-47,11],[-29,89],[18,28],[47,0],[105,-89],[35,0],[24,-84],[-35,-11],[-18,-61]],[[36448,6619],[-59,17],[24,95],[29,27],[30,-50],[0,-44],[-24,-45]],[[36372,5668],[-6,39],[-41,22],[-18,89],[29,0],[42,-105],[-6,-45]],[[34681,1552],[23,111],[59,34],[35,-67],[-117,-78]],[[17590,22494],[-24,-50],[30,-39],[0,-50],[-30,-44],[-58,-6],[17,-83],[-6,-56],[24,-28],[-12,-100],[-53,-94],[-111,-11],[-6,-51],[18,-61],[-6,-50],[53,-50],[0,-33],[-36,-34],[-41,0],[6,101],[-82,38],[-47,51],[-59,-23],[-100,50],[-23,45],[-35,-6],[-36,45],[-70,33],[-35,56],[-53,5],[-29,-33],[-6,-56],[-88,28],[99,106],[-52,55],[-88,-16],[-36,33],[-152,-50],[-24,17],[-47,-56],[-58,-5],[-77,-50],[-70,61],[-88,-67],[-59,0],[6,44],[-65,45],[-29,-61],[-59,-56],[6,-33],[-82,-39],[-76,-56],[-83,22],[-23,23],[-59,-28],[-41,50],[24,44],[-42,45],[-52,22],[-30,56],[-105,39],[-24,22],[-29,-83],[-71,-78],[-94,-84],[-23,-72],[-35,0],[-6,67],[29,78],[-12,44],[12,50],[-6,84],[-70,50],[-30,61],[12,55],[53,0],[70,106],[0,61],[-23,73],[-59,66],[-11,50],[17,51],[0,61],[65,5],[105,34],[36,22],[70,-6],[-35,73],[-71,-11],[-47,44],[53,33],[41,-44],[77,-6],[58,28],[118,-50],[29,-67],[65,23],[17,33],[100,-33],[41,16],[65,-11],[88,61],[82,17],[71,106],[52,44],[-23,67],[41,39],[59,0],[23,39],[77,61],[0,78],[88,17],[-18,50],[23,39],[65,0],[29,-23],[71,62]],[[16545,23535],[6,-134],[47,-17],[11,-78],[-41,-38],[0,-62],[-64,-50],[47,-94],[0,-50],[29,-34],[71,17],[88,-17],[-18,-66],[-41,-39],[23,-101],[41,-44],[65,-28],[76,6],[53,28],[30,38],[88,-33],[94,139],[-41,67],[52,61],[-6,28],[47,33],[53,-5]],[[15500,23707],[-24,78],[41,-11],[24,-56],[-41,-11]],[[15611,22912],[-47,16],[0,39],[88,11],[-41,-66]],[[17519,21710],[-11,56],[-47,39],[12,116],[58,28],[94,-33],[47,5],[24,-72],[64,-39],[59,50],[70,11],[36,56],[23,-50],[-29,-28],[-88,-17],[-18,-66],[12,-39],[-82,16],[23,28],[-88,39],[-41,-22],[-6,-33],[-70,0],[-42,-45]],[[17220,21554],[18,67],[58,72],[41,-39],[-93,-61],[-24,-39]],[[17613,21510],[-41,39],[-58,16],[-12,28],[47,28],[47,-44],[17,-67]],[[17062,21515],[-6,56],[58,-28],[-52,-28]],[[30800,28535],[35,50],[6,61],[-18,56],[30,61],[-18,78],[-23,22],[-6,61],[35,95],[-23,61],[-65,17],[-82,94],[12,28],[82,84],[41,128],[6,72],[-53,39],[-24,39],[36,67],[129,16],[129,39],[100,-5],[17,94],[77,22],[35,-33],[88,22],[88,-22],[41,45],[-35,33],[0,83],[-41,78],[12,67],[94,83],[41,23],[-6,44],[53,45],[11,55],[118,117],[41,22],[-6,23]],[[34012,30649],[11,-50],[47,-89],[47,-17],[6,-122],[41,-56],[0,-128],[24,-89],[6,-161],[23,-184],[-12,-233],[6,-62],[-17,-44],[0,-72],[-30,-117],[18,-28],[-30,-61],[-11,-95],[0,-128],[-36,-78],[-11,-139],[17,-39],[-111,-133],[-53,17],[-53,-23],[-53,-50],[-76,-33],[-12,-78]],[[31745,30504],[-17,17],[-12,17],[0,16]],[[31702,30559],[-21,-16],[-30,0]],[[26115,26644],[-170,-39],[-36,61],[-64,34],[-12,38],[-76,34],[-24,28],[-82,-23],[-47,28],[-35,-44],[-65,11],[-35,55],[-117,0],[-42,73],[6,61],[-58,67],[-71,22],[-35,61]],[[25152,27111],[53,39],[53,83],[52,12],[83,61],[105,100],[94,128],[153,178],[123,161],[88,134],[65,116],[82,178],[35,151],[0,39],[-35,22],[41,72],[-6,89],[-47,28],[12,33],[-47,56],[-6,50],[18,45],[0,66],[-35,45],[-30,-22],[-47,22],[18,128],[35,28],[6,50],[41,33],[24,67],[-24,44],[6,45],[59,55],[152,100],[71,23],[64,-28],[47,5],[59,34],[200,94],[70,67],[118,39],[70,6],[106,55],[117,-11],[47,-50],[-18,-39],[36,-78],[-36,-22],[-93,6],[-47,-12],[-36,-38],[-17,-106],[47,-61],[6,-39],[-59,-67],[-153,6],[-105,-45],[-6,-50],[-36,-28],[-35,-78],[-59,-11],[-35,-44],[-141,89],[-94,-134],[-17,-39],[41,-22],[-6,-56],[-41,6],[18,-100],[47,44],[46,0],[18,-44],[59,-45],[70,28],[6,61],[35,39],[41,0],[-11,-206],[17,-39],[-6,-77]],[[26479,28869],[-6,44],[-70,50],[82,12],[70,27],[24,-33],[41,11],[47,50],[-12,-106],[-82,6],[-94,-61]],[[23719,25476],[-5,-56],[35,-22],[23,-61],[35,-11],[83,5],[47,50],[64,11],[12,-27],[-59,-62],[82,-5],[24,28],[129,5],[29,84],[-64,-17],[0,39],[-47,22],[47,45],[47,0],[88,-62],[18,-39],[70,23],[-18,39],[59,66],[-6,45],[-47,17],[12,55],[59,-61],[76,39],[12,-33],[47,11],[29,33],[35,-17],[30,39],[-36,45],[18,50],[-12,44],[-35,39],[29,34],[94,61],[24,-22],[23,-106],[-35,-56],[53,-55],[47,22],[6,72],[35,56],[6,117],[-59,105],[-135,128],[-12,28],[6,89],[-70,89],[12,50],[88,78],[0,28],[82,183],[76,62],[6,39],[65,89],[-18,77],[70,0],[141,84],[18,22]],[[20302,22055],[0,-95],[24,-50],[-29,-33],[23,-33],[-53,-78]],[[20267,21766],[-64,-23],[-53,23],[-30,-28],[-47,28],[-94,-100],[-129,-6],[-47,17],[-47,-34],[-64,17],[-59,-39],[-94,33],[-29,-39],[-6,-44],[-71,-28],[-46,28],[-24,-61],[-47,-34],[6,-44],[-29,-56],[-47,-33],[-6,-67],[-77,-17],[-17,-72],[-41,-100],[35,-67],[-47,-39],[-47,-100],[-112,-33],[-129,17],[-105,5],[-47,-50],[35,-17],[17,-105],[36,0],[11,-67],[42,-11],[41,-56],[-12,-55],[-76,-45],[-118,-39],[-41,-72],[6,-84],[-53,-5],[-35,-72],[-76,-78],[-77,78],[-47,27],[-17,-27],[58,-117],[36,-17],[11,-83],[-17,-34],[35,-50],[12,-78],[0,-111],[-65,-22],[6,-28]],[[18365,19652],[-106,-28],[-47,72],[-129,6],[35,-33],[-88,-62],[12,128],[35,101],[-35,5],[0,72],[-82,17],[82,33],[-35,51],[59,105],[-71,6],[-53,28],[53,55],[47,-28],[53,23],[0,83],[53,11],[0,39],[-41,56],[-71,33],[6,33],[41,34],[-47,22],[-111,-28],[-100,45],[17,33],[53,17],[-53,94],[36,23],[-12,39],[35,94],[-47,34],[-158,0],[-41,-62],[-77,-44],[-105,-28],[-53,-50],[-12,-33],[-88,-34],[29,67],[-35,28],[41,39],[65,-34],[53,89],[29,23],[100,0],[58,55],[259,139],[70,112],[41,50],[223,94],[124,106],[29,78],[35,22],[6,72],[-23,45],[47,139],[-18,39],[18,44],[82,6],[29,111],[12,100],[117,67],[53,56],[106,16],[12,45],[-6,67],[53,16],[47,-16],[11,-45],[41,-67],[30,-11],[88,-189],[41,-61],[35,0],[47,-50],[65,28],[129,27],[94,62],[76,33],[59,-33],[59,16],[123,-5],[70,-34],[47,6],[71,50],[88,111]],[[18940,22450],[-29,39],[41,44],[47,0],[6,67],[-47,22],[23,34],[83,27],[41,-77],[11,-73],[-35,-44],[-59,5],[-82,-44]],[[19269,22561],[-6,39],[41,50],[30,-56],[-65,-33]],[[19228,22450],[-53,5],[-53,50],[41,34],[59,17],[18,-51],[-12,-55]],[[19081,22266],[-35,73],[35,72],[6,50],[71,-17],[17,-72],[-94,-106]],[[18265,21905],[-23,55],[82,84],[23,-39],[0,-61],[-70,-17],[-12,-22]],[[18154,21944],[-12,61],[41,-6],[-29,-55]],[[16545,23535],[23,-17],[83,5],[88,28],[94,45],[52,55],[47,95],[88,33],[30,56],[53,22],[82,106],[53,5],[11,67],[36,56],[35,5],[17,39],[65,28],[6,22],[76,45],[82,78],[147,61],[24,67],[88,77],[64,106],[36,39],[99,67],[100,55],[12,23],[82,44],[88,22],[77,117],[17,84],[0,61],[-70,39],[47,55],[47,17],[41,-22],[94,17],[-18,50],[100,33],[123,56],[94,11],[112,0],[-12,55],[88,0],[82,45],[0,44],[71,-11],[17,45],[94,-84],[123,39],[47,-16],[53,16],[65,-5],[35,-23],[-153,-33]],[[19480,25459],[-52,-11],[-36,-45],[53,-105],[94,-73],[53,-22],[35,-61],[-53,-133],[30,-173],[-65,-22],[-35,5],[-47,-33],[-82,-22],[-65,-34],[53,-44],[24,-67],[-18,-28],[-71,-39],[-23,-144]],[[19486,26811],[-6,61],[-41,0],[-29,44],[-47,34],[18,44],[-12,45],[18,83],[52,28],[12,33],[65,0],[29,23],[106,-61],[94,-101],[-24,-33],[12,-44],[-18,-56],[-82,-11],[24,-61],[-36,-12],[-52,28],[-24,-28],[-59,-16]],[[19017,26538],[-100,61],[29,73],[35,39],[47,-11],[12,50],[35,11],[53,-17],[24,-39],[-59,-11],[29,-50],[-6,-45],[-52,-5],[-36,44],[-52,6],[41,-106]],[[19146,26533],[23,78],[-29,66],[53,39],[70,-28],[-23,-89],[-41,-16],[-53,-50]],[[19128,26444],[-82,16],[-24,28],[47,39],[65,-50],[-6,-33]],[[35432,36306],[77,-100],[-6,-11],[100,-123],[5,-50],[59,-83],[47,-106],[0,-33],[-47,-17],[-23,-45],[123,-66],[23,-67],[-70,-28],[-12,-50],[12,-56],[29,-39],[47,-16],[65,-89],[53,0],[35,-50],[0,-61],[-29,-45],[0,-44],[70,-106],[-6,-50],[30,-61],[-12,-67],[23,-28],[-29,-100],[12,-111],[-30,-45],[-23,-167],[111,150],[18,-166],[59,-12],[23,-72],[-23,-44],[-124,-84],[-70,-16],[12,-56],[35,-28],[106,100],[47,-33],[-41,-50],[-12,-67],[-100,-17],[-70,-39],[29,-72],[-35,-22],[-47,17],[-24,-34],[106,-50],[-112,-39],[41,-28],[-58,-89],[105,0],[12,-50],[-47,-5],[-47,-39],[-70,0],[29,-45],[76,-16],[-70,-50],[-59,5],[-29,-22],[147,-89],[-47,-39],[-106,33],[-47,-33],[29,-33],[88,-6],[-11,-28],[-94,0],[59,-44],[-24,-34],[-106,11],[-88,-33],[24,-50],[-65,-28],[35,-50],[-70,-22],[-35,61],[-12,72],[-70,-5],[5,-72]],[[19480,25459],[12,-78],[24,-39],[94,-61],[146,-33],[65,11],[41,78],[41,5],[59,39],[170,39],[147,-55],[235,-17],[223,17],[100,33],[70,5],[88,-16],[253,39],[164,50],[71,78],[58,0],[65,22],[0,28]],[[21741,22489],[64,5],[42,34],[88,0],[47,22],[41,-22],[-12,-50],[76,-45],[35,-5],[-70,-134],[0,-78],[-29,-122],[6,-50],[64,-39],[29,33],[47,-94],[59,-28],[18,-50],[-59,-89],[-70,-61],[35,-23],[94,6],[-12,-33],[88,-12],[-182,-89],[-59,-11],[-76,-33],[-23,-84],[-147,-100],[-100,-55],[-65,-6],[-52,-55],[17,-45],[-41,-56],[-100,-27],[-6,-62]],[[21488,21031],[-64,23],[-65,-17],[-35,33],[-47,-16],[-41,105],[-35,11],[29,101],[6,55],[-94,28],[-106,-17],[0,100],[-17,45],[0,61],[-47,61],[0,45],[-71,-17],[-23,45],[-59,-28],[-6,-50],[-70,-34],[-77,45],[-64,72],[-94,-16],[-24,16],[-52,-16],[-18,27],[-117,23],[-30,50]],[[14707,17827],[-29,-50],[0,-44],[59,-22],[82,-78],[0,-45],[47,-94],[23,-23],[47,6],[77,-50],[29,-72],[-41,-162],[47,-33],[29,11],[29,-44],[77,0],[35,-34],[-23,-39],[76,-16],[-6,-78],[23,-28],[-5,-50],[52,-89],[53,56],[65,-67],[47,0],[47,22],[47,-33],[-6,-34],[35,-66],[-29,-45],[23,-61],[-6,-39],[-41,-17],[-23,-44],[-6,-56]],[[15541,16409],[-41,0],[-65,28],[-94,-72],[-70,-106],[0,-78],[164,-67],[0,-33],[-58,-45],[58,-39],[-70,-100],[-94,-5],[-24,-22],[-6,-62],[-52,-50],[0,-44],[-194,-111],[-71,-6],[-70,-22],[-12,-23],[-82,-27],[-59,-34],[-11,-33],[-71,-50],[6,122],[-35,17],[105,94],[36,12],[29,44],[35,89],[-23,45],[35,83],[24,22],[17,100],[-6,28],[24,73],[-65,116],[-6,34],[-70,105],[-59,23],[0,144],[18,34],[-82,22],[-42,-17],[-94,78],[65,89],[65,11],[64,-5],[41,-84],[18,-67],[94,34],[23,33],[24,100],[41,56],[-18,56],[-35,44],[-123,17],[-24,33],[-58,22],[-47,-11],[-88,-66],[-12,-39],[17,-50],[-29,-62],[-47,-33],[-29,-45],[12,-55],[-18,-56],[-35,-22],[-18,-117],[-35,-11],[23,-128],[41,-94],[47,-140],[100,-89],[82,-16],[-35,-56],[18,-44],[-41,-78],[-59,-6],[-35,-33],[-41,17],[-65,-28],[-47,28],[18,44],[-12,39],[-53,56],[-59,27],[-240,6],[-59,33],[-23,-50],[-77,28],[-23,50],[-47,0],[-6,34],[53,16],[-30,39],[0,50],[-41,50],[-76,50],[-18,34],[36,78],[23,-45],[106,-39],[88,50],[35,56],[59,133],[23,167],[-12,106],[-23,56],[-35,27],[-41,78],[-47,56],[-71,50],[-47,5],[-41,84],[100,222],[6,34],[-24,128],[-64,78],[29,27],[29,95],[-29,56],[-41,5],[18,50],[82,45],[64,-6],[83,-44],[99,66],[12,67]],[[13750,18156],[0,72],[65,50],[35,-22],[-53,-89],[-47,-11]],[[13645,17800],[-89,83],[12,50],[-35,67],[18,78],[76,-11],[47,33],[23,-44],[6,-95],[-35,-150],[-23,-11]],[[13104,17160],[-17,72],[-77,23],[-5,33],[29,56],[47,-12],[70,-66],[24,50],[41,-45],[0,-50],[-53,-11],[-59,-50]],[[13022,17104],[-23,11],[6,73],[35,16],[-18,-100]],[[12805,16765],[-59,22],[-47,39],[47,50],[35,106],[89,39],[47,5],[-6,-55],[-41,5],[-12,-66],[-24,-23],[0,-61],[-29,-61]],[[13216,14974],[-47,56],[59,27],[47,-33],[-59,-50]],[[15142,14585],[-18,72],[35,39],[59,122],[35,50],[6,56],[82,106],[53,-117],[-23,-67],[11,-117],[-29,-39],[-23,-83],[17,-11],[-6,-78],[-41,-39],[-17,-72],[-36,-12],[-82,-155],[-6,-50],[36,-56],[-18,-33],[18,-39],[-30,-39],[-111,-45],[-59,-39],[-29,56],[17,56],[-29,116],[0,45],[41,-6],[18,45],[41,39],[88,183],[0,112]],[[13874,14885],[-12,44],[53,34],[23,-56],[-64,-22]],[[13744,14112],[-41,67],[-41,33],[24,39],[129,-56],[29,-28],[-64,-55],[-36,0]],[[14331,13678],[-152,22],[-35,67],[-36,106],[-23,11],[-29,117],[5,44],[71,6],[41,55],[47,34],[18,55],[135,-28],[105,-83],[112,-45],[23,-27],[-17,-139],[-118,-145],[-53,-28],[-94,-22]],[[13216,13066],[-47,28],[-6,50],[24,17],[52,-56],[-23,-39]],[[13104,12771],[-58,61],[-12,45],[23,39],[83,-28],[5,-56],[47,-55],[-88,-6]],[[12793,12298],[-35,73],[6,50],[53,28],[41,0],[-6,-73],[-59,-78]],[[12599,11948],[-41,39],[47,22],[24,-44],[-30,-17]],[[11871,11247],[-64,50],[64,17],[0,-67]],[[12676,9712],[6,33],[41,45],[-24,67],[36,55],[52,-105],[36,-39],[-30,-84],[-76,-28],[-65,-5],[-41,-22],[-35,-67],[-53,-67],[-53,-11],[12,-45],[-117,-50],[-47,11],[6,-61],[-77,-55],[59,-17],[47,-33],[-106,-67],[-47,-67],[-82,33],[35,-66],[-70,-28],[-59,44],[-18,73],[-35,33],[-6,72],[-52,-27],[-112,5],[-35,78],[117,39],[-12,72],[83,45],[76,5],[76,89],[124,-5],[-12,39],[94,22],[17,44],[36,-27],[52,-11],[18,94],[47,50],[35,-11],[65,39],[17,-45],[77,-44]],[[13245,9356],[-47,33],[-6,73],[65,22],[123,106],[30,-50],[-30,-45],[-29,-6],[-47,-100],[-59,-33]],[[12059,8889],[0,55],[-53,6],[-11,-61],[-47,39],[0,55],[-24,11],[-35,-44],[-29,83],[-53,73],[-18,61],[59,28],[6,-84],[53,-28],[17,-50],[41,-27],[59,16],[35,-44],[41,33],[24,-33],[-29,-61],[-36,-28]],[[11736,8783],[0,78],[53,-6],[-29,-66],[-24,-6]],[[11942,8761],[-47,44],[-53,23],[18,44],[41,-56],[64,6],[-23,-61]],[[11273,8205],[-30,89],[-6,94],[24,122],[129,0],[-6,-50],[18,-50],[-6,-61],[53,-39],[35,-44],[41,-23],[-6,-38],[-70,-128],[-18,-56],[-94,-22],[-23,11],[-12,61],[-71,61],[42,73]],[[10656,7426],[29,-11],[59,22],[123,72],[36,-22],[-59,-33],[-76,-106],[-83,-67],[-64,-17],[-29,17],[-36,56],[6,83],[94,6]],[[10404,6580],[-59,23],[12,77],[41,0],[29,-89],[-23,-11]],[[27782,28624],[182,50],[188,84],[147,44],[158,100],[112,56],[76,89],[59,0],[47,-22],[129,16],[153,95],[141,122],[123,128],[65,28],[35,33],[47,6],[76,50],[59,95],[59,116],[0,23],[58,50],[30,50],[94,66],[35,73],[29,28],[71,205],[5,67],[53,134],[94,111],[247,150],[123,89],[35,17],[141,33],[147,56],[153,122],[76,84],[141,200],[0,44],[29,56],[-6,50],[18,61],[-6,45],[12,172],[59,167],[117,200],[6,39]],[[30782,31845],[6,61],[41,-22],[-47,-39]],[[28933,30443],[-76,45],[23,33],[59,0],[47,33],[35,100],[-12,50],[47,50],[65,45],[-6,33],[-53,56],[-70,0],[-47,-83],[-30,38],[0,167],[88,162],[18,5],[65,134],[88,55],[35,45],[94,55],[0,51],[23,44],[53,45],[65,11],[-18,-195],[-53,-145],[-35,-39],[-41,-100],[0,-78],[88,-44],[147,56],[17,-51],[-47,-122],[-23,-28],[-65,-150],[-64,-78],[-18,0],[-100,-66],[-35,-39],[-76,-45],[-71,6],[-82,-50],[-35,-6]],[[21488,21031],[-41,-39],[-82,-150],[0,-28],[-59,-122],[-47,-239],[0,-61],[-41,11],[-47,67],[-58,0],[-12,72],[-35,17],[-53,72],[-41,22],[6,50],[-42,45],[-105,44],[-35,50],[-12,50],[-118,39],[-99,23],[-124,11],[-11,39],[-106,0],[-129,-28],[-100,-45],[-18,56],[-29,-11],[29,-61],[-123,-73],[-106,-33],[6,-61],[-94,-45],[-88,0],[-88,-50],[-41,11],[-35,-33],[-6,-78],[-47,-6],[29,-55],[-11,-67],[41,-39],[-30,-22],[12,-50],[-29,-17],[-6,-44],[-35,-11],[-6,-95],[-41,39],[-41,-39],[-59,-122],[-65,-50],[-23,-78],[-88,5],[-36,-16],[-41,-62],[-23,-116],[6,-62],[23,-27],[-29,-95],[-59,-6],[-23,-89],[29,-55],[70,-28],[36,-139],[-41,-6],[-130,134],[-76,17],[-94,-17],[-47,-67],[-47,-11],[-41,33],[-76,34],[-35,44],[-53,-11],[-65,-39],[-6,100],[47,45],[-17,28],[64,72],[47,-22],[-6,83],[-117,28]],[[18154,19157],[0,89],[52,-17],[0,-44],[-52,-28]],[[16909,19251],[-53,-33],[-18,-39],[-41,-11],[-17,-44],[-71,-28],[-29,-45],[18,-44],[-59,-95],[-65,-11],[-47,-95],[6,-55],[82,-56],[-64,-55],[-71,33],[-11,-72],[52,-23],[-5,-50],[-65,-22],[-53,-150],[-41,-72],[-35,-112],[0,-44],[-24,-50],[-53,-217],[-82,-250],[-64,-295],[-6,-117],[64,-72],[-35,-78],[-6,-56],[-29,-100],[29,-61],[-17,-61],[-59,-34],[-76,-139],[0,-144],[-41,-23],[17,-61],[-17,-50],[-36,-17],[-23,-44],[35,-45],[-59,-11],[-17,50],[-82,-22],[-42,17],[-17,39],[12,50],[-71,55],[-82,17]],[[31857,25409],[-47,-33],[-159,-78],[-70,-6],[-18,-50],[65,-28],[41,0],[-24,-66],[-70,-17],[29,-134],[-23,-94],[17,-34],[83,-44],[88,-11],[-41,-78],[-112,-67],[-18,-39],[30,-78],[-76,-5],[-24,22],[0,95],[12,66],[-82,73],[-24,66],[-41,56],[-41,-17],[-164,39],[-200,-16],[-159,-45],[-70,-28],[-123,-100],[-18,-105],[23,-84],[-70,-17]]],"transform":{"scale":[0.0005289683220571183,0.00045191130809385646],"translate":[122.93970444147168,24.044997086013264]},"objects":{"japan":{"type":"GeometryCollection","geometries":[{"arcs":[[0,1,2,3,4,5,6]],"type":"Polygon","properties":{"nam":"Kyoto Fu","nam_ja":"京都府","id":26}},{"arcs":[[7,8,9,10]],"type":"Polygon","properties":{"nam":"Saga Ken","nam_ja":"佐賀県","id":41}},{"arcs":[[[11,12,13,14,15]],[[16]],[[17]],[[18]],[[19]],[[20]],[[21]]],"type":"MultiPolygon","properties":{"nam":"Kumamoto Ken","nam_ja":"熊本県","id":43}},{"arcs":[[[22]],[[23]],[[24]],[[25]],[[26]],[[27,28,29]]],"type":"MultiPolygon","properties":{"nam":"Kagawa Ken","nam_ja":"香川県","id":37}},{"arcs":[[30,31,32,33,34]],"type":"Polygon","properties":{"nam":"Aichi Ken","nam_ja":"愛知県","id":23}},{"arcs":[[35,36,37,38]],"type":"Polygon","properties":{"nam":"Tochigi Ken","nam_ja":"栃木県","id":9}},{"arcs":[[39,40,41,42,43]],"type":"Polygon","properties":{"nam":"Yamanashi Ken","nam_ja":"山梨県","id":19}},{"arcs":[[-3,44,45,46]],"type":"Polygon","properties":{"nam":"Shiga Ken","nam_ja":"滋賀県","id":25}},{"arcs":[[-38,47,48,49,50]],"type":"Polygon","properties":{"nam":"Gunma Ken","nam_ja":"群馬県","id":10}},{"arcs":[[[51,52,53,54,55]],[[56]],[[57]]],"type":"MultiPolygon","properties":{"nam":"Miyagi Ken","nam_ja":"宮城県","id":4}},{"arcs":[[-32,58,-43,59,60]],"type":"Polygon","properties":{"nam":"Shizuoka Ken","nam_ja":"静岡県","id":22}},{"arcs":[[-36,61,62,63,64]],"type":"Polygon","properties":{"nam":"Ibaraki Ken","nam_ja":"茨城県","id":8}},{"arcs":[[[65]],[[66]],[[67]],[[68]],[[69]],[[70]],[[71]],[[72]],[[73]],[[74]],[[75]],[[76]],[[77]],[[78]],[[79]],[[80]],[[81]],[[82]],[[83]],[[84]]],"type":"MultiPolygon","properties":{"nam":"Okinawa Ken","nam_ja":"沖縄県","id":47}},{"arcs":[[-54,85,86,87,88,89,90,91,92]],"type":"Polygon","properties":{"nam":"Yamagata Ken","nam_ja":"山形県","id":6}},{"arcs":[[[93,94,95,96]],[[97,98]],[[99,100]],[[101]]],"type":"MultiPolygon","properties":{"nam":"Wakayama Ken","nam_ja":"和歌山県","id":30}},{"arcs":[[[-10,102]],[[103]],[[104]],[[105]],[[106]],[[107]],[[108]],[[109]],[[110]],[[111]],[[112]],[[113]],[[114]],[[115]],[[116]],[[117]],[[118]],[[119]],[[120]],[[121]]],"type":"MultiPolygon","properties":{"nam":"Nagasaki Ken","nam_ja":"長崎県","id":42}},{"arcs":[[-55,-93,122,123,124]],"type":"Polygon","properties":{"nam":"Akita Ken","nam_ja":"秋田県","id":5}},{"arcs":[[[125,126,127,128]],[[129]]],"type":"MultiPolygon","properties":{"nam":"Okayama Ken","nam_ja":"岡山県","id":33}},{"arcs":[[-8,130,131,-15,132]],"type":"Polygon","properties":{"nam":"Fukuoka Ken","nam_ja":"福岡県","id":40}},{"arcs":[[-35,133,-46,134,135,136,137]],"type":"Polygon","properties":{"nam":"Gifu Ken","nam_ja":"岐阜県","id":21}},{"arcs":[[-124,138,139]],"type":"Polygon","properties":{"nam":"Aomori Ken","nam_ja":"青森県","id":2}},{"arcs":[[[-6,140,-97,141,142]],[[143]]],"type":"MultiPolygon","properties":{"nam":"Osaka Fu","nam_ja":"大阪府","id":27}},{"arcs":[[-31,-138,144,145,-49,146,-44,-59]],"type":"Polygon","properties":{"nam":"Nagano Ken","nam_ja":"長野県","id":20}},{"arcs":[[-16,-132,147,148]],"type":"Polygon","properties":{"nam":"Oita Ken","nam_ja":"大分県","id":44}},{"arcs":[[-4,-47,-134,-34,149,-95,150,-100,151,-98,152]],"type":"Polygon","properties":{"nam":"Mie Ken","nam_ja":"三重県","id":24}},{"arcs":[[[-128,153,154,155,156]],[[157]],[[158]],[[159]],[[160]],[[161]],[[162]],[[163]],[[164]],[[165]],[[166]],[[167]]],"type":"MultiPolygon","properties":{"nam":"Hiroshima Ken","nam_ja":"広島県","id":34}},{"arcs":[[[168]],[[169]],[[170]],[[171]],[[172]],[[173]],[[174]],[[175]],[[176]],[[177]],[[178]]],"type":"MultiPolygon","properties":{"nam":"Hokkai Do","nam_ja":"北海道","id":1}},{"arcs":[[[-7,-143,179,-126,180,181]],[[182]],[[183]]],"type":"MultiPolygon","properties":{"nam":"Hyogo Ken","nam_ja":"兵庫県","id":28}},{"arcs":[[-64,184,185,186]],"type":"Polygon","properties":{"nam":"Chiba Ken","nam_ja":"千葉県","id":12}},{"arcs":[[-137,187,188,189,-145]],"type":"Polygon","properties":{"nam":"Toyama Ken","nam_ja":"富山県","id":16}},{"arcs":[[[-41,190,-186,191,192]],[[193]],[[194]],[[195]],[[196]],[[197]],[[198]],[[199]],[[200]],[[201]]],"type":"MultiPolygon","properties":{"nam":"Tokyo To","nam_ja":"東京都","id":13}},{"arcs":[[-37,-65,-187,-191,-40,-147,-48]],"type":"Polygon","properties":{"nam":"Saitama Ken","nam_ja":"埼玉県","id":11}},{"arcs":[[[-155,202,203]],[[204]],[[205]],[[206]],[[207]],[[208]],[[209]]],"type":"MultiPolygon","properties":{"nam":"Yamaguchi Ken","nam_ja":"山口県","id":35}},{"arcs":[[[-39,-51,210,-86,-53,211,-62]],[[-88,212]],[[-90,213]]],"type":"MultiPolygon","properties":{"nam":"Fukushima Ken","nam_ja":"福島県","id":7}},{"arcs":[[[-136,214,215,-188]],[[216]]],"type":"MultiPolygon","properties":{"nam":"Ishikawa Ken","nam_ja":"石川県","id":17}},{"arcs":[[-2,217,-215,-135,-45]],"type":"Polygon","properties":{"nam":"Fukui Ken","nam_ja":"福井県","id":18}},{"arcs":[[[-28,218,219,220]],[[221]],[[222]],[[223]],[[224]],[[225]],[[226]]],"type":"MultiPolygon","properties":{"nam":"Ehime Ken","nam_ja":"愛媛県","id":38}},{"arcs":[[-5,-153,-99,-152,-101,-151,-94,-141]],"type":"Polygon","properties":{"nam":"Nara Ken","nam_ja":"奈良県","id":29}},{"arcs":[[[-156,-204,227,228]],[[229]],[[230]],[[231]],[[232]]],"type":"MultiPolygon","properties":{"nam":"Shimane Ken","nam_ja":"島根県","id":32}},{"arcs":[[-56,-125,-140,233]],"type":"Polygon","properties":{"nam":"Iwate Ken","nam_ja":"岩手県","id":3}},{"arcs":[[-129,-157,-229,234,-181]],"type":"Polygon","properties":{"nam":"Tottori Ken","nam_ja":"鳥取県","id":31}},{"arcs":[[-30,235,236,-219]],"type":"Polygon","properties":{"nam":"Tokushima Ken","nam_ja":"徳島県","id":36}},{"arcs":[[[-13,237,238]],[[239]],[[240]],[[241]],[[242]],[[243]],[[244]],[[245]],[[246]],[[247]],[[248]],[[249]],[[250]],[[251]],[[252]],[[253]],[[254]],[[255]],[[256]],[[257]],[[258]],[[259]],[[260]],[[261]]],"type":"MultiPolygon","properties":{"nam":"Kagoshima Ken","nam_ja":"鹿児島県","id":46}},{"arcs":[[[-50,-146,-190,262,-91,-214,-89,-213,-87,-211]],[[263]],[[264]]],"type":"MultiPolygon","properties":{"nam":"Niigata Ken","nam_ja":"新潟県","id":15}},{"arcs":[[[-220,-237,265]],[[266]]],"type":"MultiPolygon","properties":{"nam":"Kochi Ken","nam_ja":"高知県","id":39}},{"arcs":[[-12,-149,267,-238]],"type":"Polygon","properties":{"nam":"Miyazaki Ken","nam_ja":"宮崎県","id":45}},{"arcs":[[-42,-193,268,-60]],"type":"Polygon","properties":{"nam":"Kanagawa Ken","nam_ja":"神奈川県","id":14}}]}}}